[{"OBJECT_NAME":"STARLINK-34416","OBJECT_ID":"2025-137AB","EPOCH":"2026-03-09T22:29:58.788672","MEAN_MOTION":15.30138478,"ECCENTRICITY":0.00016653,"INCLINATION":53.1604,"RA_OF_ASC_NODE":334.023,"ARG_OF_PERICENTER":11.2658,"MEAN_ANOMALY":348.8379,"EPHEMERIS_TYPE":0,"CLASSIFICATION_TYPE":"U","NORAD_CAT_ID":64619,"ELEMENT_SET_NO":999,"REV_AT_EPOCH":4077,"BSTAR":0.0012194054,"MEAN_MOTION_DOT":0.00035862,"MEAN_MOTION_DDOT":0},{"OBJECT_NAME":"COSMOS 1862","OBJECT_ID":"1987-055A","EPOCH":"2026-03-09T22:37:02.390592","MEAN_MOTION":15.30492139,"ECCENTRICITY":0.00097484,"INCLINATION":82.4856,"RA_OF_ASC_NODE":47.1862,"ARG_OF_PERICENTER":26.6325,"MEAN_ANOMALY":333.5414,"EPHEMERIS_TYPE":0,"CLASSIFICATION_TYPE":"U","NORAD_CAT_ID":18152,"ELEMENT_SET_NO":999,"REV_AT_EPOCH":8987,"BSTAR":0.00034125048,"MEAN_MOTION_DOT":0.00010107,"MEAN_MOTION_DDOT":0}]
